STARLINK-1912
1 17178C 20088BJ  21326.11702675  .00002816  00000-0  18869-3 0  3264
2 17178  53.0526 143.2050 0001912  74.0457 315.7009 15.06390281    16
